start=new Date('2022-09-16T00:00:00.000Z').valueOf();
sats=[{"DECAY_DATE":null,"OBJECT_TYPE":"PAYLOAD","INCLINATION":"53.2142","TLE_LINE2":"2 52853  53.2142 328.0916 0001698  43.5229 341.5147 15.08804376 14596","GP_ID":"212658246","MEAN_ELEMENT_THEORY":"SGP4","MEAN_ANOMALY":"341.5147","RA_OF_ASC_NODE":"328.0916","RCS_SIZE":"LARGE","MEAN_MOTION_DOT":"0.00053557","CLASSIFICATION_TYPE":"U","ARG_OF_PERICENTER":"43.5229","TLE_LINE1":"1 52853U 22062Z   22259.08334491  .00053557  00000-0  33610-2 0  9997","PERIAPSIS":"538.680","REF_FRAME":"TEME","SEMIMAJOR_AXIS":"6917.989","APOAPSIS":"541.029","EPOCH":"2022-09-16T02:00:01.000224","ECCENTRICITY":"0.00016980","PERIOD":"95.440","REV_AT_EPOCH":"1459","MEAN_MOTION_DDOT":"0.0000000000000","BSTAR":"0.00336100000000","TIME_SYSTEM":"UTC","COUNTRY_CODE":"US","EPHEMERIS_TYPE":"0","FILE":"3575020","NORAD_CAT_ID":"52853","ELEMENT_SET_NO":"999","SITE":"AFETR","CENTER_NAME":"EARTH","LAUNCH_DATE":"2022-06-17","MEAN_MOTION":"15.08804376","OBJECT_NAME":"STARLINK-4189","OBJECT_ID":"2022-062Z"},{"TIME_SYSTEM":"UTC","COUNTRY_CODE":"US","EPHEMERIS_TYPE":"0","ECCENTRICITY":"0.00020480","PERIOD":"95.435","REV_AT_EPOCH":"130","MEAN_MOTION_DDOT":"0.0000000000000","BSTAR":"-0.00247170000000","OBJECT_NAME":"STARLINK-4204","OBJECT_ID":"2022-062AA","FILE":"3575050","NORAD_CAT_ID":"52854","ELEMENT_SET_NO":"999","SITE":"AFETR","CENTER_NAME":"EARTH","LAUNCH_DATE":"2022-06-17","MEAN_MOTION":"15.08874661","MEAN_ELEMENT_THEORY":"SGP4","MEAN_ANOMALY":"146.1627","RA_OF_ASC_NODE":"328.8391","RCS_SIZE":"LARGE","CLASSIFICATION_TYPE":"U","MEAN_MOTION_DOT":"-0.00039449","DECAY_DATE":null,"OBJECT_TYPE":"PAYLOAD","INCLINATION":"53.2128","TLE_LINE2":"2 52854  53.2128 328.8391 0002048  33.0620 146.1627 15.08874661  1306","GP_ID":"212683778","REF_FRAME":"TEME","SEMIMAJOR_AXIS":"6917.774","APOAPSIS":"541.056","EPOCH":"2022-09-15T22:00:00.999936","ARG_OF_PERICENTER":"33.0620","TLE_LINE1":"1 52854U 22062AA  22258.91667824 -.00039449  00000-0 -24717-2 0  9992","PERIAPSIS":"538.223"},{"FILE":"3575050","NORAD_CAT_ID":"52855","ELEMENT_SET_NO":"999","SITE":"AFETR","LAUNCH_DATE":"2022-06-17","CENTER_NAME":"EARTH","MEAN_MOTION":"15.08845998","OBJECT_NAME":"STARLINK-4209","OBJECT_ID":"2022-062AB","ECCENTRICITY":"0.00017900","REV_AT_EPOCH":"130","PERIOD":"95.437","MEAN_MOTION_DDOT":"0.0000000000000","BSTAR":"-0.00038989000000","TIME_SYSTEM":"UTC","COUNTRY_CODE":"US","EPHEMERIS_TYPE":"0","ARG_OF_PERICENTER":"51.0922","TLE_LINE1":"1 52855U 22062AB  22258.91667824 -.00006489  00000-0 -38989-3 0  9998","PERIAPSIS":"538.489","REF_FRAME":"TEME","SEMIMAJOR_AXIS":"6917.862","APOAPSIS":"540.965","EPOCH":"2022-09-15T22:00:00.999936","DECAY_DATE":null,"OBJECT_TYPE":"PAYLOAD","INCLINATION":"53.2138","TLE_LINE2":"2 52855  53.2138 328.8410 0001790  51.0922 188.0817 15.08845998  1305","GP_ID":"212684345","MEAN_ELEMENT_THEORY":"SGP4","MEAN_ANOMALY":"188.0817","RA_OF_ASC_NODE":"328.8410","MEAN_MOTION_DOT":"-0.00006489","RCS_SIZE":"LARGE","CLASSIFICATION_TYPE":"U"},{"PERIAPSIS":"538.613","ARG_OF_PERICENTER":"47.8505","TLE_LINE1":"1 52856U 22062AC  22259.08334491  .00008426  00000-0  54685-3 0  9991","APOAPSIS":"540.883","EPOCH":"2022-09-16T02:00:01.000224","REF_FRAME":"TEME","SEMIMAJOR_AXIS":"6917.883","TLE_LINE2":"2 52856  53.2133 328.0908 0001641  47.8505 357.1711 15.08839205 14591","GP_ID":"212658467","DECAY_DATE":null,"OBJECT_TYPE":"PAYLOAD","INCLINATION":"53.2133","MEAN_ANOMALY":"357.1711","RA_OF_ASC_NODE":"328.0908","MEAN_MOTION_DOT":"0.00008426","RCS_SIZE":"LARGE","CLASSIFICATION_TYPE":"U","MEAN_ELEMENT_THEORY":"SGP4","SITE":"AFETR","MEAN_MOTION":"15.08839205","LAUNCH_DATE":"2022-06-17","CENTER_NAME":"EARTH","FILE":"3575021","NORAD_CAT_ID":"52856","ELEMENT_SET_NO":"999","OBJECT_ID":"2022-062AC","OBJECT_NAME":"STARLINK-4201","BSTAR":"0.00054685000000","ECCENTRICITY":"0.00016410","PERIOD":"95.438","REV_AT_EPOCH":"1459","MEAN_MOTION_DDOT":"0.0000000000000","COUNTRY_CODE":"US","EPHEMERIS_TYPE":"0","TIME_SYSTEM":"UTC"},{"MEAN_ANOMALY":"46.3387","MEAN_MOTION_DOT":"0.00051809","RCS_SIZE":"LARGE","CLASSIFICATION_TYPE":"U","RA_OF_ASC_NODE":"328.0911","MEAN_ELEMENT_THEORY":"SGP4","TLE_LINE2":"2 52857  53.2136 328.0911 0001313  58.6967  46.3387 15.08816666 14599","GP_ID":"212658706","DECAY_DATE":null,"INCLINATION":"53.2136","OBJECT_TYPE":"PAYLOAD","APOAPSIS":"540.725","EPOCH":"2022-09-16T02:00:01.000224","REF_FRAME":"TEME","SEMIMAJOR_AXIS":"6917.952","PERIAPSIS":"538.908","ARG_OF_PERICENTER":"58.6967","TLE_LINE1":"1 52857U 22062AD  22259.08334491  .00051809  00000-0  32516-2 0  9993","COUNTRY_CODE":"US","EPHEMERIS_TYPE":"0","TIME_SYSTEM":"UTC","BSTAR":"0.00325160000000","ECCENTRICITY":"0.00013130","MEAN_MOTION_DDOT":"0.0000000000000","PERIOD":"95.439","REV_AT_EPOCH":"1459","OBJECT_ID":"2022-062AD","OBJECT_NAME":"STARLINK-4199","LAUNCH_DATE":"2022-06-17","MEAN_MOTION":"15.08816666","CENTER_NAME":"EARTH","SITE":"AFETR","NORAD_CAT_ID":"52857","FILE":"3575021","ELEMENT_SET_NO":"999"},{"FILE":"3575021","NORAD_CAT_ID":"52858","ELEMENT_SET_NO":"999","SITE":"AFETR","CENTER_NAME":"EARTH","LAUNCH_DATE":"2022-06-17","MEAN_MOTION":"15.08797663","OBJECT_NAME":"STARLINK-4198","OBJECT_ID":"2022-062AE","ECCENTRICITY":"0.00016120","PERIOD":"95.440","REV_AT_EPOCH":"1459","MEAN_MOTION_DDOT":"0.0000000000000","BSTAR":"0.00374440000000","TIME_SYSTEM":"UTC","COUNTRY_CODE":"US","EPHEMERIS_TYPE":"0","ARG_OF_PERICENTER":"53.7470","TLE_LINE1":"1 52858U 22062AE  22259.08334491  .00059740  00000-0  37444-2 0  9991","PERIAPSIS":"538.760","REF_FRAME":"TEME","SEMIMAJOR_AXIS":"6918.010","APOAPSIS":"540.990","EPOCH":"2022-09-16T02:00:01.000224","DECAY_DATE":null,"OBJECT_TYPE":"PAYLOAD","INCLINATION":"53.2131","TLE_LINE2":"2 52858  53.2131 328.0919 0001612  53.7470   6.1423 15.08797663 14590","GP_ID":"212658713","MEAN_ELEMENT_THEORY":"SGP4","MEAN_ANOMALY":"6.1423","RA_OF_ASC_NODE":"328.0919","MEAN_MOTION_DOT":"0.00059740","RCS_SIZE":"LARGE","CLASSIFICATION_TYPE":"U"},{"PERIAPSIS":"538.709","TLE_LINE1":"1 52859U 22062AF  22259.08334491  .00011685  00000-0  75146-3 0  9990","ARG_OF_PERICENTER":"62.4418","EPOCH":"2022-09-16T02:00:01.000224","APOAPSIS":"540.906","SEMIMAJOR_AXIS":"6917.942","REF_FRAME":"TEME","GP_ID":"212658466","TLE_LINE2":"2 52859  53.2156 328.0827 0001588  62.4418  62.6242 15.08819768 14606","OBJECT_TYPE":"PAYLOAD","INCLINATION":"53.2156","DECAY_DATE":null,"RA_OF_ASC_NODE":"328.0827","CLASSIFICATION_TYPE":"U","RCS_SIZE":"LARGE","MEAN_MOTION_DOT":"0.00011685","MEAN_ANOMALY":"62.6242","MEAN_ELEMENT_THEORY":"SGP4","SITE":"AFETR","LAUNCH_DATE":"2022-06-17","CENTER_NAME":"EARTH","MEAN_MOTION":"15.08819768","ELEMENT_SET_NO":"999","FILE":"3575021","NORAD_CAT_ID":"52859","OBJECT_ID":"2022-062AF","OBJECT_NAME":"STARLINK-4196","BSTAR":"0.00075146000000","PERIOD":"95.439","REV_AT_EPOCH":"1460","MEAN_MOTION_DDOT":"0.0000000000000","ECCENTRICITY":"0.00015880","EPHEMERIS_TYPE":"0","COUNTRY_CODE":"US","TIME_SYSTEM":"UTC"},{"OBJECT_ID":"2022-062AG","OBJECT_NAME":"STARLINK-4191","CENTER_NAME":"EARTH","LAUNCH_DATE":"2022-06-17","MEAN_MOTION":"15.08815792","SITE":"AFETR","NORAD_CAT_ID":"52860","FILE":"3575021","ELEMENT_SET_NO":"999","COUNTRY_CODE":"US","EPHEMERIS_TYPE":"0","TIME_SYSTEM":"UTC","BSTAR":"0.00361800000000","ECCENTRICITY":"0.00017070","MEAN_MOTION_DDOT":"0.0000000000000","PERIOD":"95.439","REV_AT_EPOCH":"1459","APOAPSIS":"541.000","EPOCH":"2022-09-16T02:00:01.000224","REF_FRAME":"TEME","SEMIMAJOR_AXIS":"6917.954","PERIAPSIS":"538.638","ARG_OF_PERICENTER":"48.1964","TLE_LINE1":"1 52860U 22062AG  22259.08334491  .00057726  00000-0  36180-2 0  9992","MEAN_ANOMALY":"36.8149","RCS_SIZE":"LARGE","CLASSIFICATION_TYPE":"U","MEAN_MOTION_DOT":"0.00057726","RA_OF_ASC_NODE":"328.0912","MEAN_ELEMENT_THEORY":"SGP4","TLE_LINE2":"2 52860  53.2137 328.0912 0001707  48.1964  36.8149 15.08815792 14592","GP_ID":"212658714","DECAY_DATE":null,"INCLINATION":"53.2137","OBJECT_TYPE":"PAYLOAD"},{"GP_ID":"212658717","TLE_LINE2":"2 52861  53.2175 328.0800 0001509  50.1997 174.8288 15.08822504 14608","INCLINATION":"53.2175","OBJECT_TYPE":"PAYLOAD","DECAY_DATE":null,"RCS_SIZE":"LARGE","MEAN_MOTION_DOT":"0.00050936","CLASSIFICATION_TYPE":"U","RA_OF_ASC_NODE":"328.0800","MEAN_ANOMALY":"174.8288","MEAN_ELEMENT_THEORY":"SGP4","PERIAPSIS":"538.755","TLE_LINE1":"1 52861U 22062AH  22259.08334491  .00050936  00000-0  31970-2 0  9991","ARG_OF_PERICENTER":"50.1997","EPOCH":"2022-09-16T02:00:01.000224","APOAPSIS":"540.843","SEMIMAJOR_AXIS":"6917.934","REF_FRAME":"TEME","BSTAR":"0.00319700000000","MEAN_MOTION_DDOT":"0.0000000000000","REV_AT_EPOCH":"1460","PERIOD":"95.439","ECCENTRICITY":"0.00015090","EPHEMERIS_TYPE":"0","COUNTRY_CODE":"US","TIME_SYSTEM":"UTC","LAUNCH_DATE":"2022-06-17","CENTER_NAME":"EARTH","MEAN_MOTION":"15.08822504","SITE":"AFETR","ELEMENT_SET_NO":"999","NORAD_CAT_ID":"52861","FILE":"3575021","OBJECT_ID":"2022-062AH","OBJECT_NAME":"STARLINK-4112"},{"OBJECT_NAME":"STARLINK-4010","OBJECT_ID":"2022-062AJ","FILE":"3575021","NORAD_CAT_ID":"52862","ELEMENT_SET_NO":"999","SITE":"AFETR","CENTER_NAME":"EARTH","LAUNCH_DATE":"2022-06-17","MEAN_MOTION":"15.08841119","TIME_SYSTEM":"UTC","COUNTRY_CODE":"US","EPHEMERIS_TYPE":"0","ECCENTRICITY":"0.00015090","PERIOD":"95.437","REV_AT_EPOCH":"1460","MEAN_MOTION_DDOT":"0.0000000000000","BSTAR":"0.00134230000000","REF_FRAME":"TEME","SEMIMAJOR_AXIS":"6917.877","APOAPSIS":"540.786","EPOCH":"2022-09-16T02:00:01.000224","ARG_OF_PERICENTER":"72.9611","TLE_LINE1":"1 52862U 22062AJ  22259.08334491  .00021140  00000-0  13423-2 0  9990","PERIAPSIS":"538.698","MEAN_ELEMENT_THEORY":"SGP4","MEAN_ANOMALY":"72.0834","RA_OF_ASC_NODE":"328.0781","RCS_SIZE":"LARGE","MEAN_MOTION_DOT":"0.00021140","CLASSIFICATION_TYPE":"U","DECAY_DATE":null,"OBJECT_TYPE":"PAYLOAD","INCLINATION":"53.2157","TLE_LINE2":"2 52862  53.2157 328.0781 0001509  72.9611  72.0834 15.08841119 14601","GP_ID":"212658705"}];
